[{"OBJECT_NAME":"STARLINK-30236","OBJECT_ID":"2023-096L","EPOCH":"2026-03-09T22:00:01.999584","MEAN_MOTION":15.1572476,"ECCENTRICITY":7.262e-5,"INCLINATION":42.9994,"RA_OF_ASC_NODE":221.2661,"ARG_OF_PERICENTER":291.1862,"MEAN_ANOMALY":273.7495,"EPHEMERIS_TYPE":0,"CLASSIFICATION_TYPE":"U","NORAD_CAT_ID":57300,"ELEMENT_SET_NO":999,"REV_AT_EPOCH":572,"BSTAR":0.0063877157,"MEAN_MOTION_DOT":0.00125921,"MEAN_MOTION_DDOT":0},{"OBJECT_NAME":"COSMOS 252 DEB","OBJECT_ID":"1968-097R","EPOCH":"2026-03-09T21:14:17.625408","MEAN_MOTION":14.2586139,"ECCENTRICITY":0.04048142,"INCLINATION":62.2843,"RA_OF_ASC_NODE":299.467,"ARG_OF_PERICENTER":222.0036,"MEAN_ANOMALY":134.9322,"EPHEMERIS_TYPE":0,"CLASSIFICATION_TYPE":"U","NORAD_CAT_ID":3565,"ELEMENT_SET_NO":999,"REV_AT_EPOCH":82919,"BSTAR":0.00082009185,"MEAN_MOTION_DOT":4.523e-5,"MEAN_MOTION_DDOT":0}]
